start=new Date('2022-06-29T00:00:00.000Z').valueOf();
sats=[{"ECCENTRICITY":"0.00014650","EPOCH":"2022-06-28T13:06:41.603904","PERIAPSIS":"546.222","REF_FRAME":"TEME","MEAN_ELEMENT_THEORY":"SGP4","MEAN_MOTION":"15.06392344","EPHEMERIS_TYPE":"0","ELEMENT_SET_NO":"999","TIME_SYSTEM":"UTC","MEAN_MOTION_DOT":"0.00000183","SITE":"AFETR","RA_OF_ASC_NODE":"237.6429","ARG_OF_PERICENTER":"76.9033","CLASSIFICATION_TYPE":"U","CENTER_NAME":"EARTH","MEAN_MOTION_DDOT":"0.0000000000000","FILE":"3504942","OBJECT_ID":"2020-057BG","REV_AT_EPOCH":"10410","APOAPSIS":"548.252","PERIOD":"95.593","COUNTRY_CODE":"US","DECAY_DATE":null,"NORAD_CAT_ID":"46171","BSTAR":"0.00003116100000","MEAN_ANOMALY":"283.2119","RCS_SIZE":"LARGE","OBJECT_NAME":"STARLINK-1633","GP_ID":"207056904","TLE_LINE2":"2 46171  53.0540 237.6429 0001465  76.9033 283.2119 15.06392344104104","SEMIMAJOR_AXIS":"6925.372","LAUNCH_DATE":"2020-08-18","OBJECT_TYPE":"PAYLOAD","TLE_LINE1":"1 46171U 20057BG  22179.54631486  .00000183  00000-0  31161-4 0  9999","INCLINATION":"53.0540"},{"ECCENTRICITY":"0.00014110","EPOCH":"2022-06-28T13:27:54.523008","MEAN_ELEMENT_THEORY":"SGP4","MEAN_MOTION":"15.06396031","EPHEMERIS_TYPE":"0","PERIAPSIS":"546.249","REF_FRAME":"TEME","RA_OF_ASC_NODE":"237.5783","SITE":"AFETR","MEAN_MOTION_DOT":"0.00000027","ELEMENT_SET_NO":"999","TIME_SYSTEM":"UTC","MEAN_MOTION_DDOT":"0.0000000000000","CLASSIFICATION_TYPE":"U","CENTER_NAME":"EARTH","OBJECT_ID":"2020-057BH","FILE":"3504789","ARG_OF_PERICENTER":"67.1600","APOAPSIS":"548.203","REV_AT_EPOCH":"10410","DECAY_DATE":null,"COUNTRY_CODE":"US","BSTAR":"0.00002073700000","NORAD_CAT_ID":"46172","PERIOD":"95.592","TLE_LINE2":"2 46172  53.0526 237.5783 0001411  67.1600 292.9538 15.06396031104103","SEMIMAJOR_AXIS":"6925.361","GP_ID":"207028789","TLE_LINE1":"1 46172U 20057BH  22179.56104772  .00000027  00000-0  20737-4 0  9999","OBJECT_TYPE":"PAYLOAD","LAUNCH_DATE":"2020-08-18","MEAN_ANOMALY":"292.9538","OBJECT_NAME":"STARLINK-1635","RCS_SIZE":"LARGE","INCLINATION":"53.0526"},{"OBJECT_NAME":"STARLINK-1640","RCS_SIZE":"LARGE","MEAN_ANOMALY":"308.7373","OBJECT_TYPE":"PAYLOAD","TLE_LINE1":"1 46173U 20057BJ  22179.60712835 -.00000705  00000-0 -28407-4 0  9997","LAUNCH_DATE":"2020-08-18","TLE_LINE2":"2 46173  53.0533 257.3851 0001742  51.3771 308.7373 15.06392345102575","SEMIMAJOR_AXIS":"6925.372","GP_ID":"207057404","INCLINATION":"53.0533","APOAPSIS":"548.443","REV_AT_EPOCH":"10257","PERIOD":"95.593","BSTAR":"-0.00002840700000","NORAD_CAT_ID":"46173","DECAY_DATE":null,"COUNTRY_CODE":"US","TIME_SYSTEM":"UTC","ELEMENT_SET_NO":"999","RA_OF_ASC_NODE":"257.3851","SITE":"AFETR","MEAN_MOTION_DOT":"-0.00000705","ARG_OF_PERICENTER":"51.3771","OBJECT_ID":"2020-057BJ","FILE":"3504942","MEAN_MOTION_DDOT":"0.0000000000000","CENTER_NAME":"EARTH","CLASSIFICATION_TYPE":"U","EPOCH":"2022-06-28T14:34:15.889440","ECCENTRICITY":"0.00017420","REF_FRAME":"TEME","PERIAPSIS":"546.031","EPHEMERIS_TYPE":"0","MEAN_MOTION":"15.06392345","MEAN_ELEMENT_THEORY":"SGP4"},{"ARG_OF_PERICENTER":"54.9423","MEAN_MOTION_DDOT":"0.0000000000000","CENTER_NAME":"EARTH","CLASSIFICATION_TYPE":"U","OBJECT_ID":"2020-057BK","FILE":"3504942","ELEMENT_SET_NO":"999","TIME_SYSTEM":"UTC","RA_OF_ASC_NODE":"257.3500","SITE":"AFETR","MEAN_MOTION_DOT":"-0.00000859","REF_FRAME":"TEME","PERIAPSIS":"546.086","MEAN_ELEMENT_THEORY":"SGP4","MEAN_MOTION":"15.06384118","EPHEMERIS_TYPE":"0","ECCENTRICITY":"0.00016990","EPOCH":"2022-06-28T14:44:53.355552","INCLINATION":"53.0534","MEAN_ANOMALY":"305.1725","OBJECT_NAME":"STARLINK-1641","RCS_SIZE":"LARGE","SEMIMAJOR_AXIS":"6925.397","TLE_LINE2":"2 46174  53.0534 257.3500 0001699  54.9423 305.1725 15.06384118102573","GP_ID":"207058148","TLE_LINE1":"1 46174U 20057BK  22179.61450643 -.00000859  00000-0 -38801-4 0  9994","OBJECT_TYPE":"PAYLOAD","LAUNCH_DATE":"2020-08-18","PERIOD":"95.593","DECAY_DATE":null,"COUNTRY_CODE":"US","BSTAR":"-0.00003880100000","NORAD_CAT_ID":"46174","APOAPSIS":"548.439","REV_AT_EPOCH":"10257"},{"RCS_SIZE":"LARGE","OBJECT_NAME":"STARLINK-1734","MEAN_ANOMALY":"296.2891","LAUNCH_DATE":"2020-09-03","TLE_LINE1":"1 46325U 20062A   22179.69237424 -.00002348  00000-0 -13882-3 0  9992","OBJECT_TYPE":"PAYLOAD","GP_ID":"207037465","SEMIMAJOR_AXIS":"6925.362","TLE_LINE2":"2 46325  53.0551 272.0043 0001505  63.8253 296.2891 15.06395588102052","INCLINATION":"53.0551","REV_AT_EPOCH":"10205","APOAPSIS":"548.269","PERIOD":"95.592","NORAD_CAT_ID":"46325","BSTAR":"-0.00013882000000","COUNTRY_CODE":"US","DECAY_DATE":null,"TIME_SYSTEM":"UTC","ELEMENT_SET_NO":"999","MEAN_MOTION_DOT":"-0.00002348","SITE":"AFETR","RA_OF_ASC_NODE":"272.0043","ARG_OF_PERICENTER":"63.8253","FILE":"3504906","OBJECT_ID":"2020-062A","CENTER_NAME":"EARTH","CLASSIFICATION_TYPE":"U","MEAN_MOTION_DDOT":"0.0000000000000","EPOCH":"2022-06-28T16:37:01.134336","ECCENTRICITY":"0.00015050","PERIAPSIS":"546.185","REF_FRAME":"TEME","EPHEMERIS_TYPE":"0","MEAN_MOTION":"15.06395588","MEAN_ELEMENT_THEORY":"SGP4"},{"MEAN_ELEMENT_THEORY":"SGP4","MEAN_MOTION":"15.06384076","EPHEMERIS_TYPE":"0","PERIAPSIS":"546.159","REF_FRAME":"TEME","ECCENTRICITY":"0.00015930","EPOCH":"2022-06-28T16:33:44.741952","CLASSIFICATION_TYPE":"U","CENTER_NAME":"EARTH","MEAN_MOTION_DDOT":"0.0000000000000","FILE":"3504942","OBJECT_ID":"2020-062B","ARG_OF_PERICENTER":"60.9494","MEAN_MOTION_DOT":"-0.00002431","RA_OF_ASC_NODE":"317.2498","SITE":"AFETR","ELEMENT_SET_NO":"999","TIME_SYSTEM":"UTC","COUNTRY_CODE":"US","DECAY_DATE":null,"NORAD_CAT_ID":"46326","BSTAR":"-0.00014441000000","PERIOD":"95.593","REV_AT_EPOCH":"10101","APOAPSIS":"548.366","INCLINATION":"53.0575","GP_ID":"207057916","TLE_LINE2":"2 46326  53.0575 317.2498 0001593  60.9494 299.1654 15.06384076101011","SEMIMAJOR_AXIS":"6925.397","LAUNCH_DATE":"2020-09-03","TLE_LINE1":"1 46326U 20062B   22179.69010118 -.00002431  00000-0 -14441-3 0  9997","OBJECT_TYPE":"PAYLOAD","MEAN_ANOMALY":"299.1654","RCS_SIZE":"LARGE","OBJECT_NAME":"STARLINK-1654"},{"MEAN_ANOMALY":"268.8111","OBJECT_NAME":"STARLINK-1673","RCS_SIZE":"LARGE","TLE_LINE2":"2 46327  53.0555 317.2054 0001775  91.3082 268.8111 15.06394650100829","SEMIMAJOR_AXIS":"6925.365","GP_ID":"207057659","OBJECT_TYPE":"PAYLOAD","TLE_LINE1":"1 46327U 20062C   22179.64583609 -.00001814  00000-0 -10289-3 0  9993","LAUNCH_DATE":"2020-09-03","INCLINATION":"53.0555","APOAPSIS":"548.459","REV_AT_EPOCH":"10082","PERIOD":"95.592","DECAY_DATE":null,"COUNTRY_CODE":"US","BSTAR":"-0.00010289000000","NORAD_CAT_ID":"46327","ELEMENT_SET_NO":"999","TIME_SYSTEM":"UTC","SITE":"AFETR","RA_OF_ASC_NODE":"317.2054","MEAN_MOTION_DOT":"-0.00001814","ARG_OF_PERICENTER":"91.3082","MEAN_MOTION_DDOT":"0.0000000000000","CLASSIFICATION_TYPE":"U","CENTER_NAME":"EARTH","OBJECT_ID":"2020-062C","FILE":"3504942","ECCENTRICITY":"0.00017750","EPOCH":"2022-06-28T15:30:00.238176","REF_FRAME":"TEME","PERIAPSIS":"546.001","MEAN_MOTION":"15.06394650","MEAN_ELEMENT_THEORY":"SGP4","EPHEMERIS_TYPE":"0"},{"ARG_OF_PERICENTER":"51.5926","FILE":"3504942","OBJECT_ID":"2020-062D","CLASSIFICATION_TYPE":"U","CENTER_NAME":"EARTH","MEAN_MOTION_DDOT":"0.0000000000000","TIME_SYSTEM":"UTC","ELEMENT_SET_NO":"999","MEAN_MOTION_DOT":"-0.00001041","SITE":"AFETR","RA_OF_ASC_NODE":"296.7082","PERIAPSIS":"546.046","REF_FRAME":"TEME","EPHEMERIS_TYPE":"0","MEAN_MOTION":"15.06387225","MEAN_ELEMENT_THEORY":"SGP4","EPOCH":"2022-06-28T18:11:54.139200","ECCENTRICITY":"0.00017430","INCLINATION":"53.0562","RCS_SIZE":"LARGE","OBJECT_NAME":"STARLINK-1686","MEAN_ANOMALY":"308.5220","LAUNCH_DATE":"2020-09-03","TLE_LINE1":"1 46328U 20062D   22179.75826550 -.00001041  00000-0 -50976-4 0  9991","OBJECT_TYPE":"PAYLOAD","GP_ID":"207056916","SEMIMAJOR_AXIS":"6925.388","TLE_LINE2":"2 46328  53.0562 296.7082 0001743  51.5926 308.5220 15.06387225101127","PERIOD":"95.593","NORAD_CAT_ID":"46328","BSTAR":"-0.00005097600000","COUNTRY_CODE":"US","DECAY_DATE":null,"REV_AT_EPOCH":"10112","APOAPSIS":"548.460"},{"MEAN_MOTION_DDOT":"0.0000000000000","CENTER_NAME":"EARTH","CLASSIFICATION_TYPE":"U","OBJECT_ID":"2020-062E","FILE":"3504942","ARG_OF_PERICENTER":"60.8725","SITE":"AFETR","RA_OF_ASC_NODE":"296.8484","MEAN_MOTION_DOT":"-0.00000379","ELEMENT_SET_NO":"999","TIME_SYSTEM":"UTC","MEAN_MOTION":"15.06391761","MEAN_ELEMENT_THEORY":"SGP4","EPHEMERIS_TYPE":"0","REF_FRAME":"TEME","PERIAPSIS":"546.100","ECCENTRICITY":"0.00016440","EPOCH":"2022-06-28T17:24:07.413120","INCLINATION":"53.0560","TLE_LINE2":"2 46329  53.0560 296.8484 0001644  60.8725 299.2428 15.06391761101118","SEMIMAJOR_AXIS":"6925.374","GP_ID":"207056663","OBJECT_TYPE":"PAYLOAD","TLE_LINE1":"1 46329U 20062E   22179.72508580 -.00000379  00000-0 -65426-5 0  9999","LAUNCH_DATE":"2020-09-03","MEAN_ANOMALY":"299.2428","OBJECT_NAME":"STARLINK-1695","RCS_SIZE":"LARGE","DECAY_DATE":null,"COUNTRY_CODE":"US","BSTAR":"-0.00000654260000","NORAD_CAT_ID":"46329","PERIOD":"95.593","APOAPSIS":"548.377","REV_AT_EPOCH":"10111"},{"EPOCH":"2022-06-28T17:08:12.805440","ECCENTRICITY":"0.00014680","REF_FRAME":"TEME","PERIAPSIS":"546.260","EPHEMERIS_TYPE":"0","MEAN_MOTION":"15.06379439","MEAN_ELEMENT_THEORY":"SGP4","TIME_SYSTEM":"UTC","ELEMENT_SET_NO":"999","MEAN_MOTION_DOT":"-0.00000988","RA_OF_ASC_NODE":"296.8867","SITE":"AFETR","ARG_OF_PERICENTER":"64.4811","FILE":"3504942","OBJECT_ID":"2020-062F","CENTER_NAME":"EARTH","CLASSIFICATION_TYPE":"U","MEAN_MOTION_DDOT":"0.0000000000000","REV_AT_EPOCH":"10112","APOAPSIS":"548.293","PERIOD":"95.593","NORAD_CAT_ID":"46330","BSTAR":"-0.00004748600000","COUNTRY_CODE":"US","DECAY_DATE":null,"RCS_SIZE":"LARGE","OBJECT_NAME":"STARLINK-1710","MEAN_ANOMALY":"295.6330","LAUNCH_DATE":"2020-09-03","TLE_LINE1":"1 46330U 20062F   22179.71403710 -.00000988  00000-0 -47486-4 0  9990","OBJECT_TYPE":"PAYLOAD","GP_ID":"207057416","TLE_LINE2":"2 46330  53.0548 296.8867 0001468  64.4811 295.6330 15.06379439101122","SEMIMAJOR_AXIS":"6925.412","INCLINATION":"53.0548"}];
